[
    {
        "Altitude(m)": 605470.7985641937,
        "Argument of Periapsis(deg)": 0.0,
        "Eccentricity": 0.0,
        "Inclination(deg)": 60.0,
        "Latitude(deg)": 27.988233960227873,
        "Longitude(deg)": 107.26295140822288,
        "Mean Anomaly(deg)": 147.2727,
        "RAAN(deg)": 45.0,
        "Satellite Name": "Test1 207",
        "Satellite Number": 207,
        "Semi-Major Axis(m)": 6980739.136638005,
        "Time(s)": 0
    },
    {
        "Altitude(m)": 605395.8363265026,
        "Argument of Periapsis(deg)": 0.00010418945913296404,
        "Eccentricity": 0.0,
        "Inclination(deg)": 60.0,
        "Latitude(deg)": 27.473924607689035,
        "Longitude(deg)": 107.61613918071757,
        "Mean Anomaly(deg)": 147.89280614546186,
        "RAAN(deg)": 44.99957995086026,
        "Satellite Name": "Test1 207",
        "Satellite Number": 207,
        "Semi-Major Axis(m)": 6980739.136638005,
        "Time(s)": 10
    }
]